[{"OBJECT_NAME":"OBJECT L","OBJECT_ID":"2023-085L","EPOCH":"2026-03-09T23:02:21.999840","MEAN_MOTION":15.29079976,"ECCENTRICITY":0.0005428,"INCLINATION":97.486,"RA_OF_ASC_NODE":178.8598,"ARG_OF_PERICENTER":50.8528,"MEAN_ANOMALY":309.3193,"EPHEMERIS_TYPE":0,"CLASSIFICATION_TYPE":"U","NORAD_CAT_ID":57014,"ELEMENT_SET_NO":999,"REV_AT_EPOCH":15144,"BSTAR":0.00063462603,"MEAN_MOTION_DOT":0.00017871,"MEAN_MOTION_DDOT":0},{"OBJECT_NAME":"STARLINK-34518","OBJECT_ID":"2025-133J","EPOCH":"2026-03-09T12:13:56.342496","MEAN_MOTION":15.30193054,"ECCENTRICITY":0.00012959,"INCLINATION":53.1587,"RA_OF_ASC_NODE":117.4416,"ARG_OF_PERICENTER":94.6877,"MEAN_ANOMALY":265.4271,"EPHEMERIS_TYPE":0,"CLASSIFICATION_TYPE":"U","NORAD_CAT_ID":64480,"ELEMENT_SET_NO":999,"REV_AT_EPOCH":4100,"BSTAR":0.00081004167,"MEAN_MOTION_DOT":0.00023703,"MEAN_MOTION_DDOT":0}]
